*******************************************************************************
 Revised: Mar 27, 2009               Neptune                                899
 
 PHYSICAL DATA (update 2009-May-26):
  Mass (10^24 kg)       =   102.41        Density (g/cm^3)       =  1.638
  Equat. radius (1 bar) = 24766+-15 km    Polar radius (km)      = 24342+-30
  Volumetric mean radius= 24624+-21 km    Flattening             =  0.0171 

  Rotation period       = 16.11+-0.01 hr  Rot. rate(10^-4 rad/s) =  1.083   
  m = w^2a^3/GM         =  0.02609        Hydrostatic flat., fh  =  0.01804
  Inferred rot. period  = 16.7+-1.4 hr    ks = 3*J2/m            =  0.407
  Mom. of inert. I/MRo^2=                 I/MRo^2 (upper bound)  =  0.239 
  Rocky core mass (Mc/M)=                 Y factor (He/H ratio)  =  0.235+-.040

  GM (km^3/s^2)         = 6,835,107       GM 1-sigma (km^3/s^2)  = +-15 
  Equ. grav, ge (m/s^2) = 11.15           Pol. grav, gp (m/s^2)  = 11.41+-0.03

  Geometric albedo      =  0.41           Visual magnitude V(1,0)= -6.87
  Vis. mag. (opposition)= +7.84           Obliquity to orbit     = 29.56 deg
  Sidereal orbit period = 164.79132 yr    Sidereal orbit period  = 60190.029 d
  Mean daily motion     = 0.006020076dg/d Mean orbit velocity    = 5.4778 km/s 

  Atmos. temp. (1 bar)  =  72+-2 K        Heat flow/mass (x10^7) =  2 erg/gm*s
  Planetary Solar Const =   1.47 W/m^2    Dipole tilt/offset     = 47deg/0.55Rp 
  Escape velocity (km/s)=  23.5           Mag.dip.mom(gauss-Rp^3)= 0.133
  Aroche(ice)/Rp        =  2.98           Hill's sphere rad., Rp = 4700
*******************************************************************************
 
 
*******************************************************************************
Ephemeris / WWW_USER Fri Sep 24 09:58:11 2010  Pasadena, USA     / Horizons    
*******************************************************************************
Target body name: Neptune (899)                   {source: NEP081}
Center body name: Solar System Barycenter (0)     {source: DE405}
Center-site name: BODY CENTER
*******************************************************************************
Start time      : A.D. 2005-Jan-01 00:00:00.0000 CT 
Stop  time      : A.D. 2015-Jan-01 00:00:00.0000 CT 
Step-size       : 360 minutes
*******************************************************************************
Center geodetic : 0.00000000,0.00000000,0.0000000 {E-lon(deg),Lat(deg),Alt(km)}
Center cylindric: 0.00000000,0.00000000,0.0000000 {E-lon(deg),Dxy(km),Dz(km)}
Center radii    : (undefined)                                                  
Output units    : KM-S                                                         
Output format   : 02
Reference frame : ICRF/J2000.0                                                 
Output type     : GEOMETRIC cartesian states
Coordinate systm: Ecliptic and Mean Equinox of Reference Epoch                 
*******************************************************************************
JDCT ,   , X, Y, Z, VX, VY, VZ,
*******************************************************************************
$$SOE
2453537.750000000, A.D. 2005-Jun-16 06:00:00.0000,  3.224930084592612E+09, -3.135043219535878E+09, -9.760389174854755E+06,  3.752127363185506E+00,  3.928551814605040E+00, -1.672030314487842E-01,
2453538.000000000, A.D. 2005-Jun-16 12:00:00.0000,  3.225011129251229E+09, -3.134958359910122E+09, -9.763998870735645E+06,  3.752017337737735E+00,  3.928824722862916E+00, -1.670314443080101E-01,
2453538.250000000, A.D. 2005-Jun-16 18:00:00.0000,  3.225092172155888E+09, -3.134873494190776E+09, -9.767605121404886E+06,  3.751964714884520E+00,  3.929113852744912E+00, -1.668859277463750E-01,
2453538.500000000, A.D. 2005-Jun-17 00:00:00.0000,  3.225173214516028E+09, -3.134788622172107E+09, -9.771208605404854E+06,  3.751966006789559E+00,  3.929405693819343E+00, -1.667767962070354E-01,
2453538.750000000, A.D. 2005-Jun-17 06:00:00.0000,  3.225254257423670E+09, -3.134703743944111E+09, -9.774810197357416E+06,  3.752013896256535E+00,  3.929686545360278E+00, -1.667117775650790E-01,
2453539.000000000, A.D. 2005-Jun-17 12:00:00.0000,  3.225335301775954E+09, -3.134618859885921E+09, -9.778410905738354E+06,  3.752097757621462E+00,  3.929943486430977E+00, -1.666954679478048E-01,
2453539.250000000, A.D. 2005-Jun-17 18:00:00.0000,  3.225416348211267E+09, -3.134533970639074E+09, -9.782011801313877E+06,  3.752204407327911E+00,  3.930165292459421E+00, -1.667290033798143E-01,
2453539.500000000, A.D. 2005-Jun-18 00:00:00.0000,  3.225497397064023E+09, -3.134449077061841E+09, -9.785613941076756E+06,  3.752319047925193E+00,  3.930343237276372E+00, -1.668099800314824E-01,
2453539.750000000, A.D. 2005-Jun-18 06:00:00.0000,  3.225578448340897E+09, -3.134364180168293E+09, -9.789218293177843E+06,  3.752426311574545E+00,  3.930471707348204E+00, -1.669326248070768E-01,
2453540.000000000, A.D. 2005-Jun-18 12:00:00.0000,  3.225659501720306E+09, -3.134279281056312E+09, -9.792825668171167E+06,  3.752511353772876E+00,  3.930548602250567E+00, -1.670882053083311E-01,
2453540.250000000, A.D. 2005-Jun-18 18:00:00.0000,  3.225740556575269E+09, -3.134194380829622E+09, -9.796436661448240E+06,  3.752560909727644E+00,  3.930575485043294E+00, -1.672656504132257E-01,
2453540.500000000, A.D. 2005-Jun-19 00:00:00.0000,  3.225821612017958E+09, -3.134109480519389E+09, -9.800051610965967E+06,  3.752564235891862E+00,  3.930557470587743E+00, -1.674523368275607E-01,
2453540.750000000, A.D. 2005-Jun-19 06:00:00.0000,  3.225902666962761E+09, -3.134024581011005E+09, -9.803670573257446E+06,  3.752513871046426E+00,  3.930502861074830E+00, -1.676349853838539E-01,
2453541.000000000, A.D. 2005-Jun-19 12:00:00.0000,  3.225983720203345E+09, -3.133939682981240E+09, -9.807293319422960E+06,  3.752406164998000E+00,  3.930422556105831E+00, -1.678006035782840E-01,
2453541.250000000, A.D. 2005-Jun-19 18:00:00.0000,  3.226064770498283E+09, -3.133854786850200E+09, -9.810919351376534E+06,  3.752241538444554E+00,  3.930329279588017E+00, -1.679374078516969E-01,
2453541.500000000, A.D. 2005-Jun-20 00:00:00.0000,  3.226145816659213E+09, -3.133769892751494E+09, -9.814547937207222E+06,  3.752024454847320E+00,  3.930236677473902E+00, -1.680356604352049E-01,
2453541.750000000, A.D. 2005-Jun-20 06:00:00.0000,  3.226226857635249E+09, -3.133685000522718E+09, -9.818178163151026E+06,  3.751763104237442E+00,  3.930158348985879E+00, -1.680883611945936E-01,
2453542.000000000, A.D. 2005-Jun-20 12:00:00.0000,  3.226307892587627E+09, -3.133600109716972E+09, -9.821808998480082E+06,  3.751468819777870E+00,  3.930106879427627E+00, -1.680917448205774E-01,
2453542.250000000, A.D. 2005-Jun-20 18:00:00.0000,  3.226388920949226E+09, -3.133515219634629E+09, -9.825439368695259E+06,  3.751155270596259E+00,  3.930092944989630E+00, -1.680455479239924E-01,
2453542.500000000, A.D. 2005-Jun-21 00:00:00.0000,  3.226469942464832E+09, -3.133430329373021E+09, -9.829068231834173E+06,  3.750837498902503E+00,  3.930124559108686E+00, -1.679530291061868E-01,
2453542.750000000, A.D. 2005-Jun-21 06:00:00.0000,  3.226550957209409E+09, -3.133345437890487E+09, -9.832694652515888E+06,  3.750530844141418E+00,  3.930206497887858E+00, -1.678207372699694E-01,
2453543.000000000, A.D. 2005-Jun-21 12:00:00.0000,  3.226631965582550E+09, -3.133260544080430E+09, -9.836317868287325E+06,  3.750249856098615E+00,  3.930339964162259E+00, -1.676580452220569E-01,
2453543.250000000, A.D. 2005-Jun-21 18:00:00.0000,  3.226712968280298E+09, -3.133175646849894E+09, -9.839937343912363E+06,  3.750007263252521E+00,  3.930522499709540E+00, -1.674764874576806E-01,
2453543.500000000, A.D. 2005-Jun-22 00:00:00.0000,  3.226793966245579E+09, -3.133090745197183E+09, -9.843552809272528E+06,  3.749813062849473E+00,  3.930748162701928E+00, -1.672889339300760E-01,
2453543.750000000, A.D. 2005-Jun-22 06:00:00.0000,  3.226874960601238E+09, -3.133005838282999E+09, -9.847164278560877E+06,  3.749673818029784E+00,  3.931007947911492E+00, -1.671086828441692E-01,
2453544.000000000, A.D. 2005-Jun-22 12:00:00.0000,  3.226955952570346E+09, -3.132920925490052E+09, -9.850772049312830E+06,  3.749592189602206E+00,  3.931290426412564E+00, -1.669485145142682E-01,
2453544.250000000, A.D. 2005-Jun-22 18:00:00.0000,  3.227036943389320E+09, -3.132836006466911E+09, -9.854376681265831E+06,  3.749566745264212E+00,  3.931582557747801E+00, -1.668197819037498E-01,
2453544.500000000, A.D. 2005-Jun-23 00:00:00.0000,  3.227117934220092E+09, -3.132751081152953E+09, -9.857978956585884E+06,  3.749592061660078E+00,  3.931870616044695E+00, -1.667316045627822E-01,
2453544.750000000, A.D. 2005-Jun-23 06:00:00.0000,  3.227198926067577E+09, -3.132666149782670E+09, -9.861579824311256E+06,  3.749659110731776E+00,  3.932141164367637E+00, -1.666902222205928E-01,
2453545.000000000, A.D. 2005-Jun-23 12:00:00.0000,  3.227279919708326E+09, -3.132581212869032E+09, -9.865180332969666E+06,  3.749755901349157E+00,  3.932382008667184E+00, -1.666985522717266E-01,
2453545.250000000, A.D. 2005-Jun-23 18:00:00.0000,  3.227360915635379E+09, -3.132496271167060E+09, -9.868781556129932E+06,  3.749868330205780E+00,  3.932583064042781E+00, -1.667559818211237E-01,
2453545.500000000, A.D. 2005-Jun-24 00:00:00.0000,  3.227441914023246E+09, -3.132411325620217E+09, -9.872384516146898E+06,  3.749981182435145E+00,  3.932737071667893E+00, -1.668584098206631E-01,
2453545.750000000, A.D. 2005-Jun-24 06:00:00.0000,  3.227522914715485E+09, -3.132326377293386E+09, -9.875990111524582E+06,  3.750079212338803E+00,  3.932840114637343E+00, -1.669985381400947E-01,
2453546.000000000, A.D. 2005-Jun-24 12:00:00.0000,  3.227603917235817E+09, -3.132241427297235E+09, -9.879599053095341E+06,  3.750148228023102E+00,  3.932891895185659E+00, -1.671663921680258E-01,
2453546.250000000, A.D. 2005-Jun-24 18:00:00.0000,  3.227684920821999E+09, -3.132156476709373E+09, -9.883211813593388E+06,  3.750176100614973E+00,  3.932895754192216E+00, -1.673500317337664E-01,
